{
  "type": "FeatureCollection",
  "features": [
    {
      "type": "Feature",
      "properties": {
        "id": "road_001",
        "name": "Station Road",
        "surface_area": 2400,
        "nearest_drain": "node_001"
      },
      "geometry": {
        "type": "LineString",
        "coordinates": [[72.8777, 19.0760], [72.8790, 19.0775]]
      }
    },
    {
      "type": "Feature",
      "properties": {
        "id": "road_002",
        "name": "Kurla East Main Road",
        "surface_area": 3200,
        "nearest_drain": "node_002"
      },
      "geometry": {
        "type": "LineString",
        "coordinates": [[72.8790, 19.0775], [72.8810, 19.0780]]
      }
    },
    {
      "type": "Feature",
      "properties": {
        "id": "road_003",
        "name": "Cross Road A",
        "surface_area": 1800,
        "nearest_drain": "node_002"
      },
      "geometry": {
        "type": "LineString",
        "coordinates": [[72.8810, 19.0780], [72.8820, 19.0795]]
      }
    },
    {
      "type": "Feature",
      "properties": {
        "id": "road_004",
        "name": "Industrial Belt Road",
        "surface_area": 3600,
        "nearest_drain": "node_003"
      },
      "geometry": {
        "type": "LineString",
        "coordinates": [[72.8820, 19.0795], [72.8850, 19.0810]]
      }
    },
    {
      "type": "Feature",
      "properties": {
        "id": "road_005",
        "name": "Lakeside Avenue",
        "surface_area": 2800,
        "nearest_drain": "node_004"
      },
      "geometry": {
        "type": "LineString",
        "coordinates": [[72.8850, 19.0810], [72.8870, 19.0820]]
      }
    },
    {
      "type": "Feature",
      "properties": {
        "id": "road_006",
        "name": "Residential Lane 1",
        "surface_area": 1600,
        "nearest_drain": "node_001"
      },
      "geometry": {
        "type": "LineString",
        "coordinates": [[72.8777, 19.0760], [72.8770, 19.0745]]
      }
    },
    {
      "type": "Feature",
      "properties": {
        "id": "road_007",
        "name": "Residential Lane 2",
        "surface_area": 1600,
        "nearest_drain": "node_002"
      },
      "geometry": {
        "type": "LineString",
        "coordinates": [[72.8790, 19.0775], [72.8800, 19.0760]]
      }
    },
    {
      "type": "Feature",
      "properties": {
        "id": "road_008",
        "name": "Hospital Street",
        "surface_area": 2000,
        "nearest_drain": "node_003"
      },
      "geometry": {
        "type": "LineString",
        "coordinates": [[72.8820, 19.0795], [72.8830, 19.0780]]
      }
    },
    {
      "type": "Feature",
      "properties": {
        "id": "road_009",
        "name": "Commercial Lane",
        "surface_area": 2200,
        "nearest_drain": "node_004"
      },
      "geometry": {
        "type": "LineString",
        "coordinates": [[72.8850, 19.0810], [72.8860, 19.0795]]
      }
    },
    {
      "type": "Feature",
      "properties": {
        "id": "road_010",
        "name": "Bypass Extension",
        "surface_area": 4000,
        "nearest_drain": "node_005"
      },
      "geometry": {
        "type": "LineString",
        "coordinates": [[72.8870, 19.0820], [72.8900, 19.0830]]
      }
    },
    {
      "type": "Feature",
      "properties": {
        "id": "road_011",
        "name": "Eastern Gateway",
        "surface_area": 3000,
        "nearest_drain": "node_005"
      },
      "geometry": {
        "type": "LineString",
        "coordinates": [[72.8900, 19.0830], [72.8920, 19.0840]]
      }
    },
    {
      "type": "Feature",
      "properties": {
        "id": "road_012",
        "name": "Market Road",
        "surface_area": 2500,
        "nearest_drain": "node_003"
      },
      "geometry": {
        "type": "LineString",
        "coordinates": [[72.8820, 19.0795], [72.8810, 19.0810]]
      }
    },
    {
      "type": "Feature",
      "properties": {
        "id": "road_013",
        "name": "School Avenue",
        "surface_area": 1900,
        "nearest_drain": "node_001"
      },
      "geometry": {
        "type": "LineString",
        "coordinates": [[72.8770, 19.0745], [72.8760, 19.0730]]
      }
    },
    {
      "type": "Feature",
      "properties": {
        "id": "road_014",
        "name": "North Bridge Road",
        "surface_area": 3400,
        "nearest_drain": "node_006"
      },
      "geometry": {
        "type": "LineString",
        "coordinates": [[72.8760, 19.0730], [72.8750, 19.0715]]
      }
    },
    {
      "type": "Feature",
      "properties": {
        "id": "road_015",
        "name": "South Bridge Road",
        "surface_area": 3400,
        "nearest_drain": "node_004"
      },
      "geometry": {
        "type": "LineString",
        "coordinates": [[72.8870, 19.0820], [72.8885, 19.0850]]
      }
    },
    {
      "type": "Feature",
      "properties": {
        "id": "road_016",
        "name": "Sector 7 Road",
        "surface_area": 2600,
        "nearest_drain": "node_002"
      },
      "geometry": {
        "type": "LineString",
        "coordinates": [[72.8800, 19.0760], [72.8815, 19.0745]]
      }
    },
    {
      "type": "Feature",
      "properties": {
        "id": "road_017",
        "name": "Sector 8 Road",
        "surface_area": 2600,
        "nearest_drain": "node_005"
      },
      "geometry": {
        "type": "LineString",
        "coordinates": [[72.8900, 19.0830], [72.8915, 19.0815]]
      }
    },
    {
      "type": "Feature",
      "properties": {
        "id": "road_018",
        "name": "Metro Access Road",
        "surface_area": 2400,
        "nearest_drain": "node_001"
      },
      "geometry": {
        "type": "LineString",
        "coordinates": [[72.8777, 19.0760], [72.8765, 19.0755]]
      }
    },
    {
      "type": "Feature",
      "properties": {
        "id": "road_019",
        "name": "Plaza Street",
        "surface_area": 2000,
        "nearest_drain": "node_003"
      },
      "geometry": {
        "type": "LineString",
        "coordinates": [[72.8820, 19.0795], [72.8835, 19.0805]]
      }
    },
    {
      "type": "Feature",
      "properties": {
        "id": "road_020",
        "name": "Technology Park Road",
        "surface_area": 3200,
        "nearest_drain": "node_006"
      },
      "geometry": {
        "type": "LineString",
        "coordinates": [[72.8750, 19.0715], [72.8740, 19.0700]]
      }
    },
    {
      "type": "Feature",
      "properties": {
        "id": "road_021",
        "name": "Airport Link Road",
        "surface_area": 4200,
        "nearest_drain": "node_005"
      },
      "geometry": {
        "type": "LineString",
        "coordinates": [[72.8870, 19.0820], [72.8895, 19.0835]]
      }
    },
    {
      "type": "Feature",
      "properties": {
        "id": "road_022",
        "name": "Park Lane",
        "surface_area": 1700,
        "nearest_drain": "node_002"
      },
      "geometry": {
        "type": "LineString",
        "coordinates": [[72.8790, 19.0775], [72.8785, 19.0790]]
      }
    },
    {
      "type": "Feature",
      "properties": {
        "id": "road_023",
        "name": "Community Street",
        "surface_area": 1900,
        "nearest_drain": "node_004"
      },
      "geometry": {
        "type": "LineString",
        "coordinates": [[72.8850, 19.0810], [72.8845, 19.0795]]
      }
    },
    {
      "type": "Feature",
      "properties": {
        "id": "road_024",
        "name": "Central Link",
        "surface_area": 3000,
        "nearest_drain": "node_003"
      },
      "geometry": {
        "type": "LineString",
        "coordinates": [[72.8820, 19.0795], [72.8805, 19.0805]]
      }
    },
    {
      "type": "Feature",
      "properties": {
        "id": "road_025",
        "name": "Western Loop",
        "surface_area": 2800,
        "nearest_drain": "node_001"
      },
      "geometry": {
        "type": "LineString",
        "coordinates": [[72.8770, 19.0745], [72.8775, 19.0760]]
      }
    },
    {
      "type": "Feature",
      "properties": {
        "id": "road_026",
        "name": "Eastern Loop",
        "surface_area": 2800,
        "nearest_drain": "node_006"
      },
      "geometry": {
        "type": "LineString",
        "coordinates": [[72.8750, 19.0715], [72.8760, 19.0730]]
      }
    },
    {
      "type": "Feature",
      "properties": {
        "id": "road_027",
        "name": "Northern Bypass",
        "surface_area": 3800,
        "nearest_drain": "node_006"
      },
      "geometry": {
        "type": "LineString",
        "coordinates": [[72.8740, 19.0700], [72.8755, 19.0685]]
      }
    },
    {
      "type": "Feature",
      "properties": {
        "id": "road_028",
        "name": "Southern Boulevard",
        "surface_area": 3400,
        "nearest_drain": "node_004"
      },
      "geometry": {
        "type": "LineString",
        "coordinates": [[72.8885, 19.0850], [72.8900, 19.0865]]
      }
    },
    {
      "type": "Feature",
      "properties": {
        "id": "road_029",
        "name": "Industrial Sector Link",
        "surface_area": 2900,
        "nearest_drain": "node_005"
      },
      "geometry": {
        "type": "LineString",
        "coordinates": [[72.8920, 19.0840], [72.8930, 19.0855]]
      }
    },
    {
      "type": "Feature",
      "properties": {
        "id": "road_030",
        "name": "Main Cross Junction",
        "surface_area": 3100,
        "nearest_drain": "node_002"
      },
      "geometry": {
        "type": "LineString",
        "coordinates": [[72.8810, 19.0780], [72.8825, 19.0765]]
      }
    }
  ]
}
